SMOG-1                  
1 47964U 21022AJ  24183.74814117  .00345573  00000+0  21840-2 0  9991
2 47964  97.4566  96.2115 0008558  98.4395 261.7841 15.75588183180523
BCCSAT-1                
1 48041U 21022AK  24183.71090248  .00097670  00000+0  16193-2 0  9993
2 48041  97.4604  91.3690 0008901  71.1332 289.0884 15.51757578180180
BEESAT-7                
1 48084U 21022AN  24183.71844903  .00263539  00000+0  23628-2 0  9995
2 48084  97.4527  92.8108 0009585  90.4117 269.8241 15.67440252180037
BEESAT-8                
1 48085U 21022AP  24183.71036621  .00032613  00000+0  10016-2 0  9990
2 48085  97.4761  85.9463 0014545  79.0330 281.2548 15.33551987180104
LEDSAT                  
1 49069U 21073D   24184.14594185  .00017922  00000+0  70930-3 0  9999
2 49069  97.4377 255.1809 0018409 226.8380 133.1320 15.25347095158736
SITRO-AIS 5 (KATYS)     
1 57176U 23091L   24184.21428783  .00008956  00000+0  57140-3 0  9992
2 57176  97.6125 236.2690 0018978  73.7306 286.6009 15.08774803 55762
SITRO-AIS 6 (CHIRKIN)   
1 57192U 23091AC  24184.19885175  .00008459  00000+0  53910-3 0  9998
2 57192  97.6122 236.2797 0018901  73.7352 286.5954 15.08833089 55762
SITRO-AIS 8 (ANOKHIN)   
1 57193U 23091AD  24184.16351448  .00010230  00000+0  64524-3 0  9990
2 57193  97.6116 236.3178 0018340  74.5819 285.7434 15.09167054 55761
SITRO-AIS 7 (FARTUSHNIY)
1 57194U 23091AE  24184.13799640  .00008312  00000+0  53053-3 0  9991
2 57194  97.6120 236.1999 0018782  74.4817 285.8483 15.08787555 55750
SITRO-AIS 10 (BURDAEV)  
1 57199U 23091AK  24184.18206729  .00009773  00000+0  58755-3 0  9998
2 57199  97.6130 237.2826 0013317  64.9170 295.3440 15.10998547 55827
SITRO-AIS 9 (SHCHUKIN)  
1 57201U 23091AM  24184.18053848  .00009621  00000+0  57878-3 0  9991
2 57201  97.6125 237.2606 0013255  64.8241 295.4362 15.10981270 55829
SITRO-AIS 12 (SMIRENNIY)
1 57204U 23091AQ  24184.14113505  .00010072  00000+0  60239-3 0  9994
2 57204  97.6141 237.3582 0013243  60.1362 300.1181 15.11178423 55826
SITRO-AIS 11 (SHEFFER)  
1 57208U 23091AU  24184.19220676  .00009218  00000+0  55048-3 0  9993
2 57208  97.6134 237.4331 0013033  60.1513 300.1010 15.11259842 55837
SITRO-AIS 29            
1 59052U 24039B   24184.15465320  .00023248  00000+0  83433-3 0  9996
2 59052  97.3914 146.0407 0018976 155.6915 204.5224 15.28518514 18885
SITRO-AIS 30            
1 59053U 24039C   24184.15471000  .00020597  00000+0  74100-3 0  9994
2 59053  97.3912 146.0365 0019063 156.5067 203.7047 15.28462756 18872
SITRO-AIS 31            
1 59054U 24039D   24184.21225251  .00020786  00000+0  74461-3 0  9997
2 59054  97.3912 146.1127 0018979 156.2139 203.9982 15.28601509 18907
SITRO-AIS 33            
1 59055U 24039E   24184.13751278  .00020376  00000+0  72730-3 0  9994
2 59055  97.3915 146.0649 0018652 157.0350 203.1728 15.28730578 18887
SITRO-AIS 35            
1 59056U 24039F   24184.13380385  .00023654  00000+0  84294-3 0  9992
2 59056  97.3914 146.0674 0018403 157.1026 203.1039 15.28756242 18881
SITRO-AIS 32            
1 59057U 24039G   24184.14106564  .00020833  00000+0  74598-3 0  9991
2 59057  97.3915 146.0594 0018471 157.2945 202.9116 15.28624377 18886
SITRO-AIS 34            
1 59058U 24039H   24184.13735217  .00020919  00000+0  74737-3 0  9994
2 59058  97.3916 146.0663 0018641 157.2740 202.9329 15.28694976 18885
SITRO-AIS 36            
1 59059U 24039J   24184.19438886  .00022502  00000+0  80029-3 0  9994
2 59059  97.3913 146.1391 0018187 157.1023 203.1032 15.28836119 18892
SITRO-AIS 49            
1 59060U 24039K   24184.19466032  .00021047  00000+0  74998-3 0  9991
2 59060  97.3914 146.1388 0018237 156.6325 203.5748 15.28786718 18893
SITRO-AIS 50            
1 59061U 24039L   24184.18489972  .00021866  00000+0  77507-3 0  9997
2 59061  97.3913 146.1507 0018128 156.7867 203.4196 15.28952935 18899
SITRO-AIS 51            
1 59062U 24039M   24184.11914948  .00024430  00000+0  86559-3 0  9994
2 59062  97.3913 146.0868 0018129 156.8489 203.3571 15.28943389 18889
SITRO-AIS 52            
1 59063U 24039N   24184.17794350  .00021773  00000+0  76981-3 0  9999
2 59063  97.3916 146.1615 0018015 156.4334 203.7735 15.29038410 18891
SITRO-AIS 25            
1 59066U 24039R   24184.18923612  .00005821  00000+0  55885-3 0  9994
2 59066  95.4026 107.5246 0168956 291.7508  66.5803 14.83083875 18336
SITRO-AIS 26            
1 59067U 24039S   24184.18905167  .00005565  00000+0  53503-3 0  9990
2 59067  95.4027 107.5240 0168874 291.7813  66.5511 14.83053890 18330
SITRO-AIS 27            
1 59068U 24039T   24184.11077278  .00005503  00000+0  52731-3 0  9991
2 59068  95.4028 107.4916 0168524 291.8705  66.4667 14.83221683 18321
SITRO-AIS 28            
1 59071U 24039U   24184.10781352  .00006032  00000+0  57724-3 0  9994
2 59071  95.4029 107.4954 0168340 291.8645  66.4746 14.83264462 18327
BEIJING 1               
1 28890U 05043A   24184.21207085  .00000668  00000+0  14152-3 0  9998
2 28890  98.2020 306.9610 0014896   4.4289 355.7041 14.62375902996097
HUANJING 1A (HJ-1A)     
1 33320U 08041A   24184.17282539  .00002590  00000+0  34757-3 0  9994
2 33320  97.6304 190.4454 0019224 326.3650  33.6341 14.80038570852575
HUANJING 1B (HJ-1B)     
1 33321U 08041B   24184.24155249  .00001991  00000+0  26460-3 0  9996
2 33321  97.6255 195.0458 0038483   9.4307 350.7620 14.80320854852608
YAOGAN-4                
1 33446U 08061A   24184.16962751  .00002822  00000+0  38036-3 0  9997
2 33446  97.8793 115.7652 0013779 233.6863 126.3077 14.79884614839772
DEIMOS-1                
1 35681U 09041A   24184.13652749  .00001097  00000+0  17654-3 0  9995
2 35681  97.6804   5.2573 0001604  36.2732 323.8585 14.73366600801510
UK-DMC 2                
1 35683U 09041C   24184.21214535  .00001624  00000+0  25796-3 0  9995
2 35683  97.7830 331.2401 0001548  86.4473 273.6912 14.73377604801220
DMC3-FM1                
1 40715U 15032A   24184.20356923  .00001242  00000+0  15636-3 0  9999
2 40715  97.7485  62.6778 0004374 235.9748 124.1051 14.83728610483808
DMC3-FM2                
1 40716U 15032B   24184.22636362  .00001255  00000+0  15791-3 0  9996
2 40716  97.7539  63.7794 0006207 243.9438 116.1138 14.83735328483802
DMC3-FM3                
1 40717U 15032C   24184.18444154  .00001032  00000+0  13122-3 0  9997
2 40717  97.7588  65.0214 0007742 241.2662 118.7775 14.83658040483804
NOAA 15                 
1 25338U 98030A   24184.17564450  .00000395  00000+0  18141-3 0  9996
2 25338  98.5676 210.9891 0009066 282.2375  77.7790 14.26616865359575
DMSP 5D-3 F16 (USA 172) 
1 28054U 03048A   24184.22264187  .00000201  00000+0  12993-3 0  9994
2 28054  99.0201 190.8315 0007665  19.1495  49.7159 14.14044392 68407
NOAA 18                 
1 28654U 05018A   24184.21745487  .00000336  00000+0  20293-3 0  9996
2 28654  98.8743 261.0578 0014511  25.2870 334.9010 14.13243352985382
METEOSAT-9 (MSG-2)      
1 28912U 05049B   24183.76280851  .00000122  00000+0  00000+0 0  9998
2 28912   7.7192  60.7522 0001707   1.9005 177.8950  1.00270379 67876
EWS-G1 (GOES 13)        
1 29155U 06018A   24183.71638802 -.00000205  00000+0  00000+0 0  9996
2 29155   2.6635  85.1375 0079391 255.4734   9.1329  0.99076682 36172
DMSP 5D-3 F17 (USA 191) 
1 29522U 06050A   24184.18255803  .00000216  00000+0  13538-3 0  9993
2 29522  98.7431 194.4490 0009040 300.9477  59.0808 14.14495184911314
FENGYUN 3A              
1 32958U 08026A   24184.12122443  .00000266  00000+0  14771-3 0  9997
2 32958  98.6045 130.8093 0009457  36.0434 324.1379 14.19113789834075
NOAA 19                 
1 33591U 09005A   24184.17096505  .00000315  00000+0  19309-3 0  9990
2 33591  99.0463 240.1283 0012866 248.0771 111.9033 14.13038320793749
GOES 14                 
1 35491U 09033A   24183.87516741 -.00000063  00000+0  00000+0 0  9992
2 35491   0.3737 102.7022 0003671   2.8452  21.3909  1.00271941 54947
DMSP 5D-3 F18 (USA 210) 
1 35951U 09057A   24184.19290793  .00000464  00000+0  26647-3 0  9994
2 35951  98.8142 159.3412 0012161 120.6167 239.6206 14.14152582758489
EWS-G2 (GOES 15)        
1 36411U 10008A   24183.61999544  .00000042  00000+0  00000+0 0  9993
2 36411   0.3400  89.2296 0002768 105.1884  10.1112  1.00270058 52466
COMS 1                  
1 36744U 10032A   24183.92231080 -.00000345  00000+0  00000+0 0  9994
2 36744   2.9772  84.2183 0000719  31.7422 264.6468  1.00270653 43912
FENGYUN 3B              
1 37214U 10059A   24184.20689912  .00000226  00000+0  14118-3 0  9995
2 37214  99.0539 212.5085 0023000  52.1678  24.7956 14.14514409706370
SUOMI NPP               
1 37849U 11061A   24184.12620658  .00000161  00000+0  97001-4 0  9997
2 37849  98.7223 121.8825 0000824 132.4536 227.6709 14.19524054656981
FENGYUN 2F              
1 38049U 12002A   24183.90766964 -.00000360  00000+0  00000+0 0  9992
2 38049   5.6300  72.9937 0001711 124.6899 161.6299  1.00275846 45709
METEOSAT-10 (MSG-3)     
1 38552U 12035B   24184.18311877 -.00000008  00000+0  00000+0 0  9996
2 38552   2.9985  61.1101 0000385 288.0902 357.4570  1.00269275 44048
METOP-B                 
1 38771U 12049A   24184.16618905  .00000247  00000+0  13272-3 0  9997
2 38771  98.6271 241.0528 0001457  85.5908 274.5436 14.21446578611679
INSAT-3D                
1 39216U 13038B   24184.15674490 -.00000154  00000+0  00000+0 0  9990
2 39216   0.0538 276.0606 0002439 189.6080 313.5695  1.00272725 40132
FENGYUN 3C              
1 39260U 13052A   24184.21549271  .00000190  00000+0  11649-3 0  9994
2 39260  98.4283 183.0252 0009835 285.8913  74.1178 14.16224373557455
METEOR-M 2              
1 40069U 14037A   24184.23989873  .00000298  00000+0  15667-3 0  9998
2 40069  98.4364 177.8052 0004967 325.9336  34.1523 14.20988352517768
